{
  "norad_id": 53832,
  "name": "STARLINK-4747",
  "history": [
    {
      "epoch": "2026-03-28T18:11:50.205408",
      "apogee_km": 540.6957568228372,
      "perigee_km": 538.7979045727234,
      "latitude_deg": 49.295004791569795,
      "longitude_deg": -4.01088287984021,
      "semi_major_axis_km": 6917.8838306977805,
      "eccentricity": 0.00013717,
      "inclination_deg": 53.2171,
      "raan_deg": 218.2664,
      "arg_perigee_deg": 82.4085,
      "mean_anomaly_deg": 277.7063,
      "mean_motion_rev_day": 15.08838874
    },
    {
      "epoch": "2026-03-29T02:08:45.524256",
      "apogee_km": 540.5653887212111,
      "perigee_km": 538.9037159743375,
      "latitude_deg": 10.594458270834771,
      "longitude_deg": 27.78391583985649,
      "semi_major_axis_km": 6917.871552347774,
      "eccentricity": 0.0001201,
      "inclination_deg": 53.217,
      "raan_deg": 216.7796,
      "arg_perigee_deg": 85.6444,
      "mean_anomaly_deg": 274.4685,
      "mean_motion_rev_day": 15.08842891
    }
  ]
}